ONEWEB-0697             
1 61603U 24188K   26167.15652304 -.00000489  00000+0 -14160-2 0  9993
2 61603  87.8886  21.2719 0001738 110.5552 249.5763 13.11415210 84314
ONEWEB-0698             
1 61604U 24188L   26167.28708880  .00000361  00000+0  98359-3 0  9999
2 61604  87.8883  21.2602 0000892 118.9297 241.1920 13.11414283 84357
ONEWEB-0699             
1 61605U 24188M   26167.14650770  .00000067  00000+0  15622-3 0  9994
2 61605  87.8838  36.4736 0001580 103.9845 256.1459 13.10376675 83175
ONEWEB-0700             
1 61606U 24188N   26167.14816762  .00000253  00000+0  68932-3 0  9999
2 61606  87.8854  36.3820 0001954 103.1526 256.9820 13.10376710 83169
ONEWEB-0701             
1 61607U 24188P   26167.16477764  .00000664  00000+0  18670-2 0  9996
2 61607  87.8836  36.4692 0001583 109.8490 250.2808 13.10373029 83173
ONEWEB-0702             
1 61608U 24188Q   26167.10397291  .00000051  00000+0  10794-3 0  9997
2 61608  87.8905  21.2024 0002041 115.5974 244.5365 13.11420344 84341
ONEWEB-0704             
1 61609U 24188R   26167.15315497  .00000464  00000+0  12932-2 0  9994
2 61609  87.8841  36.4610 0002202 111.9178 248.2183 13.10375750 83151
ONEWEB-0705             
1 61610U 24188S   26167.15812919  .00000635  00000+0  17828-2 0  9996
2 61610  87.8846  36.4654 0002653  98.0987 262.0441 13.10379012 75325
ONEWEB-0706             
1 61611U 24188T   26167.14318297 -.00000048  00000+0 -17319-3 0  9992
2 61611  87.8837  36.4736 0002060  99.3079 260.8281 13.10377253 83248
ONEWEB-0707             
1 61612U 24188U   26167.14983038  .00000254  00000+0  69017-3 0  9993
2 61612  87.8844  36.4661 0001998  99.5708 260.5645 13.10376426 83189
ONEWEB-0708             
1 61613U 24188V   26167.16809855  .00000693  00000+0  19490-2 0  9996
2 61613  87.8831  36.4807 0002352  83.0144 277.1251 13.10372014 83169
