[{"OBJECT_NAME":"ONEWEB-0697","OBJECT_ID":"2024-188K","EPOCH":"2026-06-16T03:45:23.590656","MEAN_MOTION":13.1141521,"ECCENTRICITY":0.0001738,"INCLINATION":87.8886,"RA_OF_ASC_NODE":21.2719,"ARG_OF_PERICENTER":110.5552,"MEAN_ANOMALY":249.5763,"EPHEMERIS_TYPE":0,"CLASSIFICATION_TYPE":"U","NORAD_CAT_ID":61603,"ELEMENT_SET_NO":999,"REV_AT_EPOCH":8431,"BSTAR":-0.0014160000000000002,"MEAN_MOTION_DOT":-4.89e-06,"MEAN_MOTION_DDOT":0.0},{"OBJECT_NAME":"ONEWEB-0698","OBJECT_ID":"2024-188L","EPOCH":"2026-06-16T06:53:24.472320","MEAN_MOTION":13.11414283,"ECCENTRICITY":8.92e-05,"INCLINATION":87.8883,"RA_OF_ASC_NODE":21.2602,"ARG_OF_PERICENTER":118.9297,"MEAN_ANOMALY":241.192,"EPHEMERIS_TYPE":0,"CLASSIFICATION_TYPE":"U","NORAD_CAT_ID":61604,"ELEMENT_SET_NO":999,"REV_AT_EPOCH":8435,"BSTAR":0.00098359,"MEAN_MOTION_DOT":3.61e-06,"MEAN_MOTION_DDOT":0.0},{"OBJECT_NAME":"ONEWEB-0699","OBJECT_ID":"2024-188M","EPOCH":"2026-06-16T03:30:58.265280","MEAN_MOTION":13.10376675,"ECCENTRICITY":0.000158,"INCLINATION":87.8838,"RA_OF_ASC_NODE":36.4736,"ARG_OF_PERICENTER":103.9845,"MEAN_ANOMALY":256.1459,"EPHEMERIS_TYPE":0,"CLASSIFICATION_TYPE":"U","NORAD_CAT_ID":61605,"ELEMENT_SET_NO":999,"REV_AT_EPOCH":8317,"BSTAR":0.00015622,"MEAN_MOTION_DOT":6.7e-07,"MEAN_MOTION_DDOT":0.0},{"OBJECT_NAME":"ONEWEB-0700","OBJECT_ID":"2024-188N","EPOCH":"2026-06-16T03:33:21.682368","MEAN_MOTION":13.1037671,"ECCENTRICITY":0.0001954,"INCLINATION":87.8854,"RA_OF_ASC_NODE":36.382,"ARG_OF_PERICENTER":103.1526,"MEAN_ANOMALY":256.982,"EPHEMERIS_TYPE":0,"CLASSIFICATION_TYPE":"U","NORAD_CAT_ID":61606,"ELEMENT_SET_NO":999,"REV_AT_EPOCH":8316,"BSTAR":0.0006893200000000001,"MEAN_MOTION_DOT":2.53e-06,"MEAN_MOTION_DDOT":0.0},{"OBJECT_NAME":"ONEWEB-0701","OBJECT_ID":"2024-188P","EPOCH":"2026-06-16T03:57:16.788096","MEAN_MOTION":13.10373029,"ECCENTRICITY":0.0001583,"INCLINATION":87.8836,"RA_OF_ASC_NODE":36.4692,"ARG_OF_PERICENTER":109.849,"MEAN_ANOMALY":250.2808,"EPHEMERIS_TYPE":0,"CLASSIFICATION_TYPE":"U","NORAD_CAT_ID":61607,"ELEMENT_SET_NO":999,"REV_AT_EPOCH":8317,"BSTAR":0.0018670000000000002,"MEAN_MOTION_DOT":6.64e-06,"MEAN_MOTION_DDOT":0.0},{"OBJECT_NAME":"ONEWEB-0702","OBJECT_ID":"2024-188Q","EPOCH":"2026-06-16T02:29:43.259424","MEAN_MOTION":13.11420344,"ECCENTRICITY":0.0002041,"INCLINATION":87.8905,"RA_OF_ASC_NODE":21.2024,"ARG_OF_PERICENTER":115.5974,"MEAN_ANOMALY":244.5365,"EPHEMERIS_TYPE":0,"CLASSIFICATION_TYPE":"U","NORAD_CAT_ID":61608,"ELEMENT_SET_NO":999,"REV_AT_EPOCH":8434,"BSTAR":0.00010794,"MEAN_MOTION_DOT":5.1e-07,"MEAN_MOTION_DDOT":0.0},{"OBJECT_NAME":"ONEWEB-0704","OBJECT_ID":"2024-188R","EPOCH":"2026-06-16T03:40:32.589408","MEAN_MOTION":13.1037575,"ECCENTRICITY":0.0002202,"INCLINATION":87.8841,"RA_OF_ASC_NODE":36.461,"ARG_OF_PERICENTER":111.9178,"MEAN_ANOMALY":248.2183,"EPHEMERIS_TYPE":0,"CLASSIFICATION_TYPE":"U","NORAD_CAT_ID":61609,"ELEMENT_SET_NO":999,"REV_AT_EPOCH":8315,"BSTAR":0.0012932,"MEAN_MOTION_DOT":4.64e-06,"MEAN_MOTION_DDOT":0.0},{"OBJECT_NAME":"ONEWEB-0705","OBJECT_ID":"2024-188S","EPOCH":"2026-06-16T03:47:42.362016","MEAN_MOTION":13.10379012,"ECCENTRICITY":0.0002653,"INCLINATION":87.8846,"RA_OF_ASC_NODE":36.4654,"ARG_OF_PERICENTER":98.0987,"MEAN_ANOMALY":262.0441,"EPHEMERIS_TYPE":0,"CLASSIFICATION_TYPE":"U","NORAD_CAT_ID":61610,"ELEMENT_SET_NO":999,"REV_AT_EPOCH":7532,"BSTAR":0.0017828,"MEAN_MOTION_DOT":6.35e-06,"MEAN_MOTION_DDOT":0.0},{"OBJECT_NAME":"ONEWEB-0706","OBJECT_ID":"2024-188T","EPOCH":"2026-06-16T03:26:11.008608","MEAN_MOTION":13.10377253,"ECCENTRICITY":0.000206,"INCLINATION":87.8837,"RA_OF_ASC_NODE":36.4736,"ARG_OF_PERICENTER":99.3079,"MEAN_ANOMALY":260.8281,"EPHEMERIS_TYPE":0,"CLASSIFICATION_TYPE":"U","NORAD_CAT_ID":61611,"ELEMENT_SET_NO":999,"REV_AT_EPOCH":8324,"BSTAR":-0.00017319000000000001,"MEAN_MOTION_DOT":-4.8e-07,"MEAN_MOTION_DDOT":0.0},{"OBJECT_NAME":"ONEWEB-0707","OBJECT_ID":"2024-188U","EPOCH":"2026-06-16T03:35:45.344832","MEAN_MOTION":13.10376426,"ECCENTRICITY":0.0001998,"INCLINATION":87.8844,"RA_OF_ASC_NODE":36.4661,"ARG_OF_PERICENTER":99.5708,"MEAN_ANOMALY":260.5645,"EPHEMERIS_TYPE":0,"CLASSIFICATION_TYPE":"U","NORAD_CAT_ID":61612,"ELEMENT_SET_NO":999,"REV_AT_EPOCH":8318,"BSTAR":0.0006901699999999999,"MEAN_MOTION_DOT":2.54e-06,"MEAN_MOTION_DDOT":0.0},{"OBJECT_NAME":"ONEWEB-0708","OBJECT_ID":"2024-188V","EPOCH":"2026-06-16T04:02:03.714720","MEAN_MOTION":13.10372014,"ECCENTRICITY":0.0002352,"INCLINATION":87.8831,"RA_OF_ASC_NODE":36.4807,"ARG_OF_PERICENTER":83.0144,"MEAN_ANOMALY":277.1251,"EPHEMERIS_TYPE":0,"CLASSIFICATION_TYPE":"U","NORAD_CAT_ID":61613,"ELEMENT_SET_NO":999,"REV_AT_EPOCH":8316,"BSTAR":0.001949,"MEAN_MOTION_DOT":6.93e-06,"MEAN_MOTION_DDOT":0.0}]